OSCAR III [-]           
1 01293U 65016F   08362.11586417 -.00000099  00000-0 -28362-4 0  4197
2 01293  70.0702 183.2826 0016376  33.7096 326.5052 14.04678137235648
AO-5 [-]                
1 04321U 70008B   08360.99455234 -.00000031  00000-0  10000-3 0   982
2 04321 102.1292   2.8286 0027611 307.7944  52.0626 12.52155360779088
AO-6 [-]                
1 06236U 72082B   08360.10887740 -.00000027  00000-0  10000-3 0   881
2 06236 101.4033  14.4720 0003716 230.0553 130.0193 12.53076013655601
AO-7 [P]                
1 07530U 74089B   08361.46749842 -.00000027  00000-0  10000-3 0  3623
2 07530 101.4466  26.3746 0011810 246.0210 113.9628 12.53574861561074
AO-8 [-]                
1 10703U 78026B   08361.89142462 -.00000276  00000-0 -16228-3 0  3621
2 10703  98.8591  47.2100 0006343 288.4730  71.5745 13.98826503571934
AO-10 [-]               
1 14129U 83058B   08360.44051195 -.00000012  00000-0  10000-3 0  6015
2 14129  26.0284 179.5072 5960537 184.4027 166.1156  2.05868360164075
UO-11 [P]               
1 14781U 84021B   08361.30466834  .00000141  00000-0  25978-4 0  8459
2 14781  98.1330  37.9698 0009310 168.4088 191.7315 14.79685781332266
FO-12 [-]               
1 16909U 86061B   08361.17434896 -.00000083  00000-0  10000-3 0  4896
2 16909  50.0180 333.7719 0011467 126.1599 234.0298 12.44452239 17435
UO-14 [-]               
1 20437U 90005B   08361.97638086  .00000001  00000-0  16049-4 0  8113
2 20437  98.3155 321.1133 0010673 325.3652  34.6837 14.31532851988410
UO-15 [-]               
1 20438U 90005C   08361.43034774 -.00000005  00000-0  14009-4 0  3056
2 20438  98.3756 312.8011 0010139 354.3496   5.7571 14.30436489987776
AO-16 [P]               
1 20439U 90005D   08361.94603762  .00000030  00000-0  26584-4 0  4961
2 20439  98.2553 332.4071 0010510 328.0390  32.0152 14.31812175988500
DO-17 [-]               
1 20440U 90005E   08361.63387606  .00000023  00000-0  23759-4 0  2056
2 20440  98.2315 337.2342 0010550 324.6199  35.4282 14.32115056988590
WO-18 [-]               
1 20441U 90005F   08361.04974247  .00000028  00000-0  25655-4 0  7119
2 20441  98.2387 335.2668 0011315 329.9500  30.1035 14.31880174988444
LO-19 [P]               
1 20442U 90005G   08361.96145277  .00000023  00000-0  23665-4 0  4205
2 20442  98.2208 340.3275 0011400 324.4304  35.6123 14.32049239988667
FO-20 [-]               
1 20480U 90013C   08361.89383708 -.00000036  00000-0 -64467-5 0   210
2 20480  99.0566 308.6523 0540066 200.2831 157.6055 12.83359328884806
AO-21 [-]               
1 21087U 91006A   08361.86136936  .00000052  00000-0  38373-4 0  1531
2 21087  82.9404 173.6628 0036471  46.4316 313.9860 13.75039147898730
RS-12 & RS-13 [-]       
1 21089U 91007A   08361.66417545 -.00000004  00000-0 -20432-4 0   333
2 21089  82.9213  34.6839 0030902  89.7533 270.7173 13.74483828897491
UO-22 [-]               
1 21575U 91050B   08361.89146604  .00000027  00000-0  22578-4 0  4454
2 21575  98.4240 307.4309 0007495 169.2961 190.8399 14.39659986915918
KO-23 [-]               
1 22077U 92052B   08362.09926653 -.00000037  00000-0  10000-3 0  6245
2 22077  66.0873 327.0670 0009344 320.4967  39.5365 12.86446441769380
AO-24 [-]               
1 22654U 93031B   08360.06727683 -.00000119  00000-0  10000-3 0  2192
2 22654   5.2113 340.7059 2882725 150.5942 229.3837  1.42205280 76642
AO-27 [+]               
1 22825U 93061C   08361.86008356 -.00000078  00000-0 -14227-4 0  1384
2 22825  98.4122 314.9312 0009218  55.3134 304.8911 14.29254767795296
IO-26 [P]               
1 22826U 93061D   08361.18058500  .00000019  00000-0  23891-4 0  8552
2 22826  98.4066 315.1001 0009752  54.1789 306.0304 14.29505488795297
KO-25 [-]               
1 22828U 93061F   08361.95101114 -.00000003  00000-0  15170-4 0   747
2 22828  98.3997 315.7883 0010294  27.7953 332.3770 14.29807313763675
PO-28 [+]               
1 22829U 93061G   08360.93325031  .00000011  00000-0  20373-4 0  1112
2 22829  98.3959 315.9303 0010102  27.8612 332.3111 14.30205229795533
RS-15 [P]               
1 23439U 94085A   08359.08001997 -.00000039  00000-0  10000-3 0  1681
2 23439  64.8128 187.9769 0145902  85.8529 275.9055 11.27553426576374
FO-29 [P]               
1 24278U 96046B   08361.54695846  .00000040  00000-0  73917-4 0  9358
2 24278  98.5776 252.5509 0351300  77.6171 286.4046 13.52941068610406
MO-30 [-]               
1 24305U 96052B   08361.75443527  .00000028  00000-0  14150-4 0  9963
2 24305  82.9353 121.5803 0030613  17.1144 343.1039 13.73565518617008
TO-31 [-]               
1 25396U 98043C   08361.61144190  .00000069  00000-0  48117-4 0  2907
2 25396  98.3537  32.3932 0002991  36.0188 324.1192 14.23769413543746
GO-32 [P]               
1 25397U 98043D   08361.18892246  .00000065  00000-0  47063-4 0  7812
2 25397  98.3451  26.6574 0001989  58.5758 301.5622 14.23153045543529
SO-33 [P]               
1 25509U 98061B   08361.96828443 -.00000041  00000-0 -22433-4 0  3547
2 25509  31.4357 306.3036 0355143 272.6983  83.3062 14.28233798531193
PO-34 [-]               
1 25520U 98064B   08361.20280632  .00000424  00000-0  11047-4 0  1508
2 25520  28.4609 333.1758 0005503 216.9645 143.0571 15.17275846562359
ARISS [+]               
1 25544U 98067A   08361.52062318  .00011219  00000-0  89152-4 0  9369
2 25544  51.6417 110.7667 0007680 130.3323 334.0421 15.71790900578792
SO-35 [-]               
1 25636U 99008C   08361.65504669  .00000025  00000-0  14153-4 0  1927
2 25636  96.4590 221.2480 0149399  48.6050 312.7898 14.43451075518213
UO-36 [-]               
1 25693U 99021A   08361.34635567 -.00000146  00000-0 -44203-6 0  8039
2 25693  64.5581 286.8330 0024498 212.9969 146.9626 14.78732698522289
OO-38 [-]               
1 26063U 00004C   08361.19960998 -.00000025  00000-0  11605-4 0  3933
2 26063 100.1895 110.4038 0037097  28.9612 331.3616 14.35852044467123
SO-41 [-]               
1 26545U 00057A   08361.91118035 -.00000062  00000-0  11320-4 0  1453
2 26545  64.5597 288.4043 0048286 305.0659  54.5946 14.80552657445699
MO-46 [-]               
1 26548U 00057D   08361.92360001 -.00000084  00000-0  83681-5 0  2803
2 26548  64.5594 253.8589 0045947 297.3405  62.3010 14.83327134446405
SO-42 [-]               
1 26549U 00057E   08361.06446086 -.00000065  00000-0  11053-4 0  2203
2 26549  64.5594 306.7007 0050763 310.4693  49.2009 14.79409198445257
AO-40 [-]               
1 26609U 00072B   08357.37598698 -.00000023  00000-0  10000-3 0  1701
2 26609   8.3411  42.1271 7939549 157.7677 278.7401  1.25584862 37409
NO-44 [P]               
1 26931U 01043C   08361.61599318 -.00000077  00000-0  21329-5 0   593
2 26931  67.0499 148.9270 0005969 258.5675 101.4719 14.29542988377918
NO-45 [-]               
1 26932U 01043D   08361.86581924 -.00000061  00000-0  84699-5 0   609
2 26932  67.0536 148.1907 0008089 254.2554 105.7655 14.29599140377991
BO-47 & BO-48 [-]       
1 27422U 02021B   08362.21248291 -.00000015  00000-0  11096-4 0  9336
2 27422  98.5379  79.3400 0012697  12.1725 347.9761 14.28474297344855
AO-49 [-]               
1 27605U 02058A   08361.48540940  .00000020  00000-0  24820-4 0  8033
2 27605  64.5570 177.5079 0081776 242.7789 116.4986 14.72379578323515
SO-50 [+]               
1 27607U 02058C   08361.01297002  .00000048  00000-0  29530-4 0  7742
2 27607  64.5553 191.0458 0082486 242.0927 117.1824 14.71403859323198
DTUSAT [-]              
1 27842U 03031C   08361.87436362  .00000020  00000-0  29550-4 0  4517
2 27842  98.7085   8.4560 0008803 262.6453  97.3720 14.20960409284874
CO-55 [+]               
1 27844U 03031E   08361.50639644  .00000026  00000-0  32673-4 0  4737
2 27844  98.7157   7.1015 0009101 283.6790  76.3378 14.20613972284748
AAU CUBESAT [-]         
1 27846U 03031G   08360.95861735  .00000025  00000-0  31888-4 0  3897
2 27846  98.7081   7.5474 0008844 264.5051  95.5115 14.20960998284745
CANX-1 [-]              
1 27847U 03031H   08360.54265265  .00000031  00000-0  34593-4 0  4028
2 27847  98.7086   7.1314 0008702 265.4670  94.5523 14.20945127284637
CO-57 [+]               
1 27848U 03031J   08361.95315242  .00000036  00000-0  37187-4 0  4225
2 27848  98.7163   6.6092 0009249 287.1132  72.9029 14.20419878284777
RS-22 [+]               
1 27939U 03042A   08361.54029891  .00000008  00000-0  10431-4 0  6768
2 27939  97.9684 236.4251 0013169 321.6046  38.4224 14.63282914280328
AO-51 [+]               
1 28375U 04025K   08361.92570859  .00000005  00000-0  14350-4 0  2769
2 28375  98.0575  15.5276 0083553 288.7832  70.4304 14.40628718236155
VO-52 [+]               
1 28650U 05017B   08361.96374925  .00000405  00000-0  57996-4 0  1145
2 28650  97.7679  63.0374 0026279 230.6096 129.2772 14.81538111197148
UWE-1 [-]               
1 28892U 05043C   08360.95471021  .00000212  00000-0  53911-4 0  2246
2 28892  98.0766 249.7607 0017602 166.4442 193.7255 14.59692426168572
XO-53 [-]               
1 28894U 05043E   08361.66418709  .00000012  00000-0  12138-4 0  3471
2 28894  98.0770 250.7046 0017678 166.5732 193.5943 14.59648330168683
CO-58 [+]               
1 28895U 05043F   08357.69608648  .00000096  00000-0  29631-4 0  1952
2 28895  98.0826 247.0326 0018215 176.7596 183.3728 14.59726383167980
NCUBE-2 [-]             
1 28897U 05043H   08361.68210475  .00000116  00000-0  33622-4 0  7331
2 28897  98.0770 250.8333 0017263 165.7114 194.4566 14.59902801160859
CO-56 [P]               
1 28941U 06005C   08362.04508670  .00025005  26621-5  14111-3 0  6727
2 28941  98.1232 140.9131 0130705  55.4465 305.8846 15.68311654160141
PEHUENSAT 1 [+]         
1 29712U 07001D   08362.14335373  .00000612  00000-0  86809-4 0   936
2 29712  97.8540  56.4786 0015227 113.3642 246.9184 14.80389766106013
DO-64 [+]               
1 32789U 08021G   08362.21833081  .00000689  00000-0  94511-4 0  2490
2 32789  97.9709  61.4076 0015059 227.9273 132.0655 14.81572680 35987
